[{"OBJECT_NAME":"STARLINK-34600","OBJECT_ID":"2025-142D","EPOCH":"2026-03-09T22:14:52.486368","MEAN_MOTION":14.9832918,"ECCENTRICITY":0.00027257,"INCLINATION":70.0002,"RA_OF_ASC_NODE":313.9343,"ARG_OF_PERICENTER":260.4834,"MEAN_ANOMALY":99.6017,"EPHEMERIS_TYPE":0,"CLASSIFICATION_TYPE":"U","NORAD_CAT_ID":64699,"ELEMENT_SET_NO":999,"REV_AT_EPOCH":3951,"BSTAR":0.00045163174,"MEAN_MOTION_DOT":5.3e-5,"MEAN_MOTION_DDOT":0},{"OBJECT_NAME":"MEGSAT-1","OBJECT_ID":"2000-057B","EPOCH":"2026-03-09T22:47:17.292480","MEAN_MOTION":15.04862037,"ECCENTRICITY":0.0038022,"INCLINATION":64.552,"RA_OF_ASC_NODE":26.971,"ARG_OF_PERICENTER":294.4401,"MEAN_ANOMALY":65.2751,"EPHEMERIS_TYPE":0,"CLASSIFICATION_TYPE":"U","NORAD_CAT_ID":26546,"ELEMENT_SET_NO":999,"REV_AT_EPOCH":38272,"BSTAR":0.00040228449,"MEAN_MOTION_DOT":5.624e-5,"MEAN_MOTION_DDOT":0}]
